[{"CCSDS_OMM_VERS":"2.0","COMMENT":"GENERATED VIA SPACE-TRACK.ORG API","CREATION_DATE":"2023-05-09T06:36:12","ORIGINATOR":"18 SPCS","OBJECT_NAME":"KSF3-C","OBJECT_ID":"2023-001K","CENTER_NAME":"EARTH","REF_FRAME":"TEME","TIME_SYSTEM":"UTC","MEAN_ELEMENT_THEORY":"SGP4","EPOCH":"2023-05-09T04:32:16.581120","MEAN_MOTION":"15.15946273","ECCENTRICITY":"0.00117520","INCLINATION":"97.4808","RA_OF_ASC_NODE":"189.2834","ARG_OF_PERICENTER":"143.9508","MEAN_ANOMALY":"291.2296","EPHEMERIS_TYPE":"0","CLASSIFICATION_TYPE":"U","NORAD_CAT_ID":"55018","ELEMENT_SET_NO":"999","REV_AT_EPOCH":"1915","BSTAR":"0.00069162000000","MEAN_MOTION_DOT":"0.00013233","MEAN_MOTION_DDOT":"0.0000000000000","SEMIMAJOR_AXIS":"6896.244","PERIOD":"94.990","APOAPSIS":"526.214","PERIAPSIS":"510.005","OBJECT_TYPE":"PAYLOAD","RCS_SIZE":"MEDIUM","COUNTRY_CODE":"LUXE","LAUNCH_DATE":"2023-01-03","SITE":"AFETR","DECAY_DATE":null,"FILE":"3904340","GP_ID":"231479359","TLE_LINE0":"0 KSF3-C","TLE_LINE1":"1 55018U 23001K   23129.18908080  .00013233  00000-0  69162-3 0  9995","TLE_LINE2":"2 55018  97.4808 189.2834 0011752 143.9508 291.2296 15.15946273 19158"},{"CCSDS_OMM_VERS":"2.0","COMMENT":"GENERATED VIA SPACE-TRACK.ORG API","CREATION_DATE":"2023-05-09T21:10:44","ORIGINATOR":"18 SPCS","OBJECT_NAME":"KSF3-C","OBJECT_ID":"2023-001K","CENTER_NAME":"EARTH","REF_FRAME":"TEME","TIME_SYSTEM":"UTC","MEAN_ELEMENT_THEORY":"SGP4","EPOCH":"2023-05-09T12:36:48.440160","MEAN_MOTION":"15.15957312","ECCENTRICITY":"0.00117430","INCLINATION":"97.4810","RA_OF_ASC_NODE":"189.6155","ARG_OF_PERICENTER":"142.2256","MEAN_ANOMALY":"328.1118","EPHEMERIS_TYPE":"0","CLASSIFICATION_TYPE":"U","NORAD_CAT_ID":"55018","ELEMENT_SET_NO":"999","REV_AT_EPOCH":"1920","BSTAR":"0.00070609000000","MEAN_MOTION_DOT":"0.00013516","MEAN_MOTION_DDOT":"0.0000000000000","SEMIMAJOR_AXIS":"6896.211","PERIOD":"94.989","APOAPSIS":"526.174","PERIAPSIS":"509.978","OBJECT_TYPE":"PAYLOAD","RCS_SIZE":"MEDIUM","COUNTRY_CODE":"LUXE","LAUNCH_DATE":"2023-01-03","SITE":"AFETR","DECAY_DATE":null,"FILE":"3904553","GP_ID":"231509992","TLE_LINE0":"0 KSF3-C","TLE_LINE1":"1 55018U 23001K   23129.52556065  .00013516  00000-0  70609-3 0  9997","TLE_LINE2":"2 55018  97.4810 189.6155 0011743 142.2256 328.1118 15.15957312 19208"},{"CCSDS_OMM_VERS":"2.0","COMMENT":"GENERATED VIA SPACE-TRACK.ORG API","CREATION_DATE":"2023-05-10T19:12:59","ORIGINATOR":"18 SPCS","OBJECT_NAME":"KSF3-C","OBJECT_ID":"2023-001K","CENTER_NAME":"EARTH","REF_FRAME":"TEME","TIME_SYSTEM":"UTC","MEAN_ELEMENT_THEORY":"SGP4","EPOCH":"2023-05-10T12:21:38.623104","MEAN_MOTION":"15.15992053","ECCENTRICITY":"0.00118340","INCLINATION":"97.4807","RA_OF_ASC_NODE":"190.5905","ARG_OF_PERICENTER":"139.7384","MEAN_ANOMALY":"327.2478","EPHEMERIS_TYPE":"0","CLASSIFICATION_TYPE":"U","NORAD_CAT_ID":"55018","ELEMENT_SET_NO":"999","REV_AT_EPOCH":"1935","BSTAR":"0.00075323000000","MEAN_MOTION_DOT":"0.00014439","MEAN_MOTION_DDOT":"0.0000000000000","SEMIMAJOR_AXIS":"6896.105","PERIOD":"94.987","APOAPSIS":"526.131","PERIAPSIS":"509.810","OBJECT_TYPE":"PAYLOAD","RCS_SIZE":"MEDIUM","COUNTRY_CODE":"LUXE","LAUNCH_DATE":"2023-01-03","SITE":"AFETR","DECAY_DATE":null,"FILE":"3904555","GP_ID":"231536935","TLE_LINE0":"0 KSF3-C","TLE_LINE1":"1 55018U 23001K   23130.51503036  .00014439  00000-0  75323-3 0  9991","TLE_LINE2":"2 55018  97.4807 190.5905 0011834 139.7384 327.2478 15.15992053 19358"},{"CCSDS_OMM_VERS":"2.0","COMMENT":"GENERATED VIA SPACE-TRACK.ORG API","CREATION_DATE":"2023-05-10T23:06:13","ORIGINATOR":"18 SPCS","OBJECT_NAME":"KSF3-C","OBJECT_ID":"2023-001K","CENTER_NAME":"EARTH","REF_FRAME":"TEME","TIME_SYSTEM":"UTC","MEAN_ELEMENT_THEORY":"SGP4","EPOCH":"2023-05-10T20:21:25.689600","MEAN_MOTION":"15.16003328","ECCENTRICITY":"0.00119030","INCLINATION":"97.4803","RA_OF_ASC_NODE":"190.9185","ARG_OF_PERICENTER":"139.1211","MEAN_ANOMALY":"345.0998","EPHEMERIS_TYPE":"0","CLASSIFICATION_TYPE":"U","NORAD_CAT_ID":"55018","ELEMENT_SET_NO":"999","REV_AT_EPOCH":"1940","BSTAR":"0.00076355000000","MEAN_MOTION_DOT":"0.00014643","MEAN_MOTION_DDOT":"0.0000000000000","SEMIMAJOR_AXIS":"6896.071","PERIOD":"94.987","APOAPSIS":"526.145","PERIAPSIS":"509.728","OBJECT_TYPE":"PAYLOAD","RCS_SIZE":"MEDIUM","COUNTRY_CODE":"LUXE","LAUNCH_DATE":"2023-01-03","SITE":"AFETR","DECAY_DATE":null,"FILE":"3904636","GP_ID":"231539925","TLE_LINE0":"0 KSF3-C","TLE_LINE1":"1 55018U 23001K   23130.84821400  .00014643  00000-0  76355-3 0  9998","TLE_LINE2":"2 55018  97.4803 190.9185 0011903 139.1211 345.0998 15.16003328 19408"},{"CCSDS_OMM_VERS":"2.0","COMMENT":"GENERATED VIA SPACE-TRACK.ORG API","CREATION_DATE":"2023-05-11T05:02:58","ORIGINATOR":"18 SPCS","OBJECT_NAME":"KSF3-C","OBJECT_ID":"2023-001K","CENTER_NAME":"EARTH","REF_FRAME":"TEME","TIME_SYSTEM":"UTC","MEAN_ELEMENT_THEORY":"SGP4","EPOCH":"2023-05-10T20:21:25.689600","MEAN_MOTION":"15.16003328","ECCENTRICITY":"0.00119030","INCLINATION":"97.4803","RA_OF_ASC_NODE":"190.9185","ARG_OF_PERICENTER":"139.1211","MEAN_ANOMALY":"345.0998","EPHEMERIS_TYPE":"0","CLASSIFICATION_TYPE":"U","NORAD_CAT_ID":"55018","ELEMENT_SET_NO":"999","REV_AT_EPOCH":"1940","BSTAR":"0.00076355000000","MEAN_MOTION_DOT":"0.00014643","MEAN_MOTION_DDOT":"0.0000000000000","SEMIMAJOR_AXIS":"6896.071","PERIOD":"94.987","APOAPSIS":"526.145","PERIAPSIS":"509.728","OBJECT_TYPE":"PAYLOAD","RCS_SIZE":"MEDIUM","COUNTRY_CODE":"LUXE","LAUNCH_DATE":"2023-01-03","SITE":"AFETR","DECAY_DATE":null,"FILE":"3904830","GP_ID":"231569063","TLE_LINE0":"0 KSF3-C","TLE_LINE1":"1 55018U 23001K   23130.84821400  .00014643  00000-0  76355-3 0  9998","TLE_LINE2":"2 55018  97.4803 190.9185 0011903 139.1211 345.0998 15.16003328 19408"},{"CCSDS_OMM_VERS":"2.0","COMMENT":"GENERATED VIA SPACE-TRACK.ORG API","CREATION_DATE":"2023-05-11T07:16:13","ORIGINATOR":"18 SPCS","OBJECT_NAME":"KSF3-C","OBJECT_ID":"2023-001K","CENTER_NAME":"EARTH","REF_FRAME":"TEME","TIME_SYSTEM":"UTC","MEAN_ELEMENT_THEORY":"SGP4","EPOCH":"2023-05-11T04:07:18.938208","MEAN_MOTION":"15.16014117","ECCENTRICITY":"0.00119030","INCLINATION":"97.4800","RA_OF_ASC_NODE":"191.2368","ARG_OF_PERICENTER":"138.3867","MEAN_ANOMALY":"310.4427","EPHEMERIS_TYPE":"0","CLASSIFICATION_TYPE":"U","NORAD_CAT_ID":"55018","ELEMENT_SET_NO":"999","REV_AT_EPOCH":"1945","BSTAR":"0.00077182000000","MEAN_MOTION_DOT":"0.00014807","MEAN_MOTION_DDOT":"0.0000000000000","SEMIMAJOR_AXIS":"6896.039","PERIOD":"94.986","APOAPSIS":"526.112","PERIAPSIS":"509.695","OBJECT_TYPE":"PAYLOAD","RCS_SIZE":"MEDIUM","COUNTRY_CODE":"LUXE","LAUNCH_DATE":"2023-01-03","SITE":"AFETR","DECAY_DATE":null,"FILE":"3904862","GP_ID":"231571824","TLE_LINE0":"0 KSF3-C","TLE_LINE1":"1 55018U 23001K   23131.17174697  .00014807  00000-0  77182-3 0  9995","TLE_LINE2":"2 55018  97.4800 191.2368 0011903 138.3867 310.4427 15.16014117 19456"},{"CCSDS_OMM_VERS":"2.0","COMMENT":"GENERATED VIA SPACE-TRACK.ORG API","CREATION_DATE":"2023-05-11T16:56:12","ORIGINATOR":"18 SPCS","OBJECT_NAME":"KSF3-C","OBJECT_ID":"2023-001K","CENTER_NAME":"EARTH","REF_FRAME":"TEME","TIME_SYSTEM":"UTC","MEAN_ELEMENT_THEORY":"SGP4","EPOCH":"2023-05-11T12:10:05.492064","MEAN_MOTION":"15.16025992","ECCENTRICITY":"0.00118070","INCLINATION":"97.4801","RA_OF_ASC_NODE":"191.5675","ARG_OF_PERICENTER":"136.9728","MEAN_ANOMALY":"340.4460","EPHEMERIS_TYPE":"0","CLASSIFICATION_TYPE":"U","NORAD_CAT_ID":"55018","ELEMENT_SET_NO":"999","REV_AT_EPOCH":"1950","BSTAR":"0.00078567000000","MEAN_MOTION_DOT":"0.00015079","MEAN_MOTION_DDOT":"0.0000000000000","SEMIMAJOR_AXIS":"6896.002","PERIOD":"94.985","APOAPSIS":"526.010","PERIAPSIS":"509.725","OBJECT_TYPE":"PAYLOAD","RCS_SIZE":"MEDIUM","COUNTRY_CODE":"LUXE","LAUNCH_DATE":"2023-01-03","SITE":"AFETR","DECAY_DATE":null,"FILE":"3905098","GP_ID":"231576653","TLE_LINE0":"0 KSF3-C","TLE_LINE1":"1 55018U 23001K   23131.50700801  .00015079  00000-0  78567-3 0  9994","TLE_LINE2":"2 55018  97.4801 191.5675 0011807 136.9728 340.4460 15.16025992 19503"},{"CCSDS_OMM_VERS":"2.0","COMMENT":"GENERATED VIA SPACE-TRACK.ORG API","CREATION_DATE":"2023-05-11T17:34:54","ORIGINATOR":"18 SPCS","OBJECT_NAME":"KSF3-C","OBJECT_ID":"2023-001K","CENTER_NAME":"EARTH","REF_FRAME":"TEME","TIME_SYSTEM":"UTC","MEAN_ELEMENT_THEORY":"SGP4","EPOCH":"2023-05-11T12:10:05.492064","MEAN_MOTION":"15.16025992","ECCENTRICITY":"0.00118070","INCLINATION":"97.4801","RA_OF_ASC_NODE":"191.5675","ARG_OF_PERICENTER":"136.9728","MEAN_ANOMALY":"340.4460","EPHEMERIS_TYPE":"0","CLASSIFICATION_TYPE":"U","NORAD_CAT_ID":"55018","ELEMENT_SET_NO":"999","REV_AT_EPOCH":"1950","BSTAR":"0.00078567000000","MEAN_MOTION_DOT":"0.00015079","MEAN_MOTION_DDOT":"0.0000000000000","SEMIMAJOR_AXIS":"6896.002","PERIOD":"94.985","APOAPSIS":"526.010","PERIAPSIS":"509.725","OBJECT_TYPE":"PAYLOAD","RCS_SIZE":"MEDIUM","COUNTRY_CODE":"LUXE","LAUNCH_DATE":"2023-01-03","SITE":"AFETR","DECAY_DATE":null,"FILE":"3905210","GP_ID":"231604600","TLE_LINE0":"0 KSF3-C","TLE_LINE1":"1 55018U 23001K   23131.50700801  .00015079  00000-0  78567-3 0  9994","TLE_LINE2":"2 55018  97.4801 191.5675 0011807 136.9728 340.4460 15.16025992 19503"}]